start=new Date('2023-03-14T00:00:00.000Z').valueOf();
sats=[{"MEAN_MOTION_DDOT":"0.0000000000000","EPOCH":"2023-03-12T22:31:59.873952","CLASSIFICATION_TYPE":"U","TLE_LINE2":"2 53011  53.2151 309.6762 0001381  60.0158 300.0971 15.08850244 38014","EPHEMERIS_TYPE":"0","MEAN_MOTION_DOT":"0.00015301","ELEMENT_SET_NO":"999","GP_ID":"228004017","BSTAR":"0.00097707000000","NORAD_CAT_ID":"53011","TLE_LINE1":"1 53011U 22076AB  23071.93888743  .00015301  00000-0  97707-3 0  9993","MEAN_MOTION":"15.08850244","PERIAPSIS":"538.759","OBJECT_TYPE":"PAYLOAD","RCS_SIZE":"LARGE","COUNTRY_CODE":"US","OBJECT_NAME":"STARLINK-4265","PERIOD":"95.437","LAUNCH_DATE":"2022-07-07","FILE":"3859425","INCLINATION":"53.2151","SITE":"AFETR","MEAN_ANOMALY":"300.0971","SEMIMAJOR_AXIS":"6917.849","REF_FRAME":"TEME","CENTER_NAME":"EARTH","RA_OF_ASC_NODE":"309.6762","ARG_OF_PERICENTER":"60.0158","MEAN_ELEMENT_THEORY":"SGP4","REV_AT_EPOCH":"3801","ECCENTRICITY":"0.00013810","APOAPSIS":"540.669","DECAY_DATE":null,"OBJECT_ID":"2022-076AB","TIME_SYSTEM":"UTC"},{"ELEMENT_SET_NO":"999","MEAN_MOTION_DOT":"0.00007148","EPHEMERIS_TYPE":"0","TLE_LINE2":"2 53012  53.2153 319.0182 0001399  61.9023 298.2111 15.08858731 37908","MEAN_MOTION_DDOT":"0.0000000000000","CLASSIFICATION_TYPE":"U","EPOCH":"2023-03-13T02:02:38.116896","PERIAPSIS":"538.720","MEAN_MOTION":"15.08858731","TLE_LINE1":"1 53012U 22076AC  23072.08516339  .00007148  00000-0  46651-3 0  9992","BSTAR":"0.00046651000000","GP_ID":"228004759","NORAD_CAT_ID":"53012","LAUNCH_DATE":"2022-07-07","OBJECT_NAME":"STARLINK-4271","RCS_SIZE":"LARGE","COUNTRY_CODE":"US","PERIOD":"95.436","OBJECT_TYPE":"PAYLOAD","DECAY_DATE":null,"OBJECT_ID":"2022-076AC","TIME_SYSTEM":"UTC","ECCENTRICITY":"0.00013990","REV_AT_EPOCH":"3790","APOAPSIS":"540.656","MEAN_ANOMALY":"298.2111","SEMIMAJOR_AXIS":"6917.823","REF_FRAME":"TEME","SITE":"AFETR","RA_OF_ASC_NODE":"319.0182","ARG_OF_PERICENTER":"61.9023","MEAN_ELEMENT_THEORY":"SGP4","CENTER_NAME":"EARTH","INCLINATION":"53.2153","FILE":"3859425"},{"SITE":"AFETR","REF_FRAME":"TEME","SEMIMAJOR_AXIS":"6917.879","MEAN_ANOMALY":"277.3515","CENTER_NAME":"EARTH","ARG_OF_PERICENTER":"82.7637","RA_OF_ASC_NODE":"305.2515","MEAN_ELEMENT_THEORY":"SGP4","INCLINATION":"53.2156","FILE":"3859631","OBJECT_ID":"2022-076AD","DECAY_DATE":null,"TIME_SYSTEM":"UTC","REV_AT_EPOCH":"3816","ECCENTRICITY":"0.00014130","APOAPSIS":"540.722","RCS_SIZE":"LARGE","COUNTRY_CODE":"US","OBJECT_NAME":"STARLINK-4177","PERIOD":"95.438","OBJECT_TYPE":"PAYLOAD","LAUNCH_DATE":"2022-07-07","GP_ID":"228034896","BSTAR":"0.00071932000000","NORAD_CAT_ID":"53013","PERIAPSIS":"538.767","TLE_LINE1":"1 53013U 22076AD  23072.92513670  .00011179  00000-0  71932-3 0  9990","MEAN_MOTION":"15.08840424","TLE_LINE2":"2 53013  53.2156 305.2515 0001413  82.7637 277.3515 15.08840424 38163","MEAN_MOTION_DDOT":"0.0000000000000","EPOCH":"2023-03-13T22:12:11.810880","CLASSIFICATION_TYPE":"U","MEAN_MOTION_DOT":"0.00011179","ELEMENT_SET_NO":"999","EPHEMERIS_TYPE":"0"},{"CENTER_NAME":"EARTH","ARG_OF_PERICENTER":"96.1708","RA_OF_ASC_NODE":"305.1729","MEAN_ELEMENT_THEORY":"SGP4","SITE":"AFETR","SEMIMAJOR_AXIS":"6917.926","MEAN_ANOMALY":"263.9399","REF_FRAME":"TEME","FILE":"3859631","INCLINATION":"53.2175","TIME_SYSTEM":"UTC","DECAY_DATE":null,"OBJECT_ID":"2022-076AE","APOAPSIS":"540.487","REV_AT_EPOCH":"3816","ECCENTRICITY":"0.00010060","PERIOD":"95.438","RCS_SIZE":"LARGE","COUNTRY_CODE":"US","OBJECT_NAME":"STARLINK-4183","OBJECT_TYPE":"PAYLOAD","LAUNCH_DATE":"2022-07-07","NORAD_CAT_ID":"53014","GP_ID":"228034647","BSTAR":"0.00054188000000","PERIAPSIS":"539.095","TLE_LINE1":"1 53014U 22076AE  23072.93985685  .00008343  00000-0  54188-3 0  9994","MEAN_MOTION":"15.08825162","TLE_LINE2":"2 53014  53.2175 305.1729 0001006  96.1708 263.9399 15.08825162 38160","EPOCH":"2023-03-13T22:33:23.631840","CLASSIFICATION_TYPE":"U","MEAN_MOTION_DDOT":"0.0000000000000","MEAN_MOTION_DOT":"0.00008343","ELEMENT_SET_NO":"999","EPHEMERIS_TYPE":"0"},{"OBJECT_NAME":"STARLINK-4262","RCS_SIZE":"LARGE","COUNTRY_CODE":"US","PERIOD":"95.438","OBJECT_TYPE":"PAYLOAD","LAUNCH_DATE":"2022-07-07","REF_FRAME":"TEME","SEMIMAJOR_AXIS":"6917.883","MEAN_ANOMALY":"261.2353","SITE":"AFETR","MEAN_ELEMENT_THEORY":"SGP4","ARG_OF_PERICENTER":"98.8780","RA_OF_ASC_NODE":"305.2795","CENTER_NAME":"EARTH","INCLINATION":"53.2152","FILE":"3859631","OBJECT_ID":"2022-076AF","DECAY_DATE":null,"TIME_SYSTEM":"UTC","ECCENTRICITY":"0.00012390","REV_AT_EPOCH":"3816","APOAPSIS":"540.605","TLE_LINE2":"2 53015  53.2152 305.2795 0001239  98.8780 261.2353 15.08839263 38165","MEAN_MOTION_DDOT":"0.0000000000000","CLASSIFICATION_TYPE":"U","EPOCH":"2023-03-13T22:01:36.036480","ELEMENT_SET_NO":"999","MEAN_MOTION_DOT":"0.00018794","EPHEMERIS_TYPE":"0","BSTAR":"0.00119580000000","GP_ID":"228033396","NORAD_CAT_ID":"53015","PERIAPSIS":"538.891","MEAN_MOTION":"15.08839263","TLE_LINE1":"1 53015U 22076AF  23072.91777820  .00018794  00000-0  11958-2 0  9991"},{"MEAN_MOTION_DOT":"0.00013058","ELEMENT_SET_NO":"999","EPHEMERIS_TYPE":"0","TLE_LINE2":"2 53016  53.2159 309.0844 0001302  75.7680 284.3456 15.08868986 38034","CLASSIFICATION_TYPE":"U","EPOCH":"2023-03-13T01:37:28.403040","MEAN_MOTION_DDOT":"0.0000000000000","PERIAPSIS":"538.756","TLE_LINE1":"1 53016U 22076AG  23072.06768985  .00013058  00000-0  83634-3 0  9999","MEAN_MOTION":"15.08868986","NORAD_CAT_ID":"53016","GP_ID":"228004261","BSTAR":"0.00083634000000","LAUNCH_DATE":"2022-07-07","PERIOD":"95.436","RCS_SIZE":"LARGE","COUNTRY_CODE":"US","OBJECT_NAME":"STARLINK-4283","OBJECT_TYPE":"PAYLOAD","TIME_SYSTEM":"UTC","DECAY_DATE":null,"OBJECT_ID":"2022-076AG","APOAPSIS":"540.557","REV_AT_EPOCH":"3803","ECCENTRICITY":"0.00013020","CENTER_NAME":"EARTH","RA_OF_ASC_NODE":"309.0844","ARG_OF_PERICENTER":"75.7680","MEAN_ELEMENT_THEORY":"SGP4","SITE":"AFETR","SEMIMAJOR_AXIS":"6917.792","MEAN_ANOMALY":"284.3456","REF_FRAME":"TEME","INCLINATION":"53.2159","FILE":"3859425"},{"APOAPSIS":"540.567","REV_AT_EPOCH":"3817","ECCENTRICITY":"0.00011690","TIME_SYSTEM":"UTC","DECAY_DATE":null,"OBJECT_ID":"2022-076AH","FILE":"3859631","INCLINATION":"53.2161","CENTER_NAME":"EARTH","ARG_OF_PERICENTER":"100.1919","RA_OF_ASC_NODE":"305.2920","MEAN_ELEMENT_THEORY":"SGP4","SITE":"AFETR","SEMIMAJOR_AXIS":"6917.894","REF_FRAME":"TEME","MEAN_ANOMALY":"259.9205","LAUNCH_DATE":"2022-07-07","OBJECT_TYPE":"PAYLOAD","PERIOD":"95.438","RCS_SIZE":"LARGE","COUNTRY_CODE":"US","OBJECT_NAME":"STARLINK-4281","TLE_LINE1":"1 53017U 22076AH  23072.91409305  .00000528  00000-0  51279-4 0  9991","MEAN_MOTION":"15.08835663","PERIAPSIS":"538.950","NORAD_CAT_ID":"53017","GP_ID":"228034397","BSTAR":"0.00005127900000","EPHEMERIS_TYPE":"0","MEAN_MOTION_DOT":"0.00000528","ELEMENT_SET_NO":"999","EPOCH":"2023-03-13T21:56:17.639520","CLASSIFICATION_TYPE":"U","MEAN_MOTION_DDOT":"0.0000000000000","TLE_LINE2":"2 53017  53.2161 305.2920 0001169 100.1919 259.9205 15.08835663 38171"},{"MEAN_MOTION_DOT":"0.00003638","ELEMENT_SET_NO":"999","EPHEMERIS_TYPE":"0","TLE_LINE2":"2 53018  53.2165 309.0996 0001385  96.5459 263.5690 15.08849212 38037","EPOCH":"2023-03-13T01:33:32.638176","CLASSIFICATION_TYPE":"U","MEAN_MOTION_DDOT":"0.0000000000000","PERIAPSIS":"538.759","TLE_LINE1":"1 53018U 22076AJ  23072.06496109  .00003638  00000-0  24651-3 0  9994","MEAN_MOTION":"15.08849212","NORAD_CAT_ID":"53018","BSTAR":"0.00024651000000","GP_ID":"228003768","LAUNCH_DATE":"2022-07-07","PERIOD":"95.437","RCS_SIZE":"LARGE","COUNTRY_CODE":"US","OBJECT_NAME":"STARLINK-4279","OBJECT_TYPE":"PAYLOAD","TIME_SYSTEM":"UTC","OBJECT_ID":"2022-076AJ","DECAY_DATE":null,"APOAPSIS":"540.675","REV_AT_EPOCH":"3803","ECCENTRICITY":"0.00013850","CENTER_NAME":"EARTH","RA_OF_ASC_NODE":"309.0996","ARG_OF_PERICENTER":"96.5459","MEAN_ELEMENT_THEORY":"SGP4","SITE":"AFETR","SEMIMAJOR_AXIS":"6917.852","MEAN_ANOMALY":"263.5690","REF_FRAME":"TEME","INCLINATION":"53.2165","FILE":"3859425"},{"PERIOD":"95.438","OBJECT_NAME":"STARLINK-4282","COUNTRY_CODE":"US","RCS_SIZE":"LARGE","OBJECT_TYPE":"PAYLOAD","LAUNCH_DATE":"2022-07-07","ARG_OF_PERICENTER":"70.1628","MEAN_ELEMENT_THEORY":"SGP4","RA_OF_ASC_NODE":"305.3281","CENTER_NAME":"EARTH","SEMIMAJOR_AXIS":"6917.895","MEAN_ANOMALY":"289.9528","REF_FRAME":"TEME","SITE":"AFETR","INCLINATION":"53.2153","FILE":"3859631","TIME_SYSTEM":"UTC","DECAY_DATE":null,"OBJECT_ID":"2022-076AK","APOAPSIS":"540.810","ECCENTRICITY":"0.00015190","REV_AT_EPOCH":"3816","TLE_LINE2":"2 53019  53.2153 305.3281 0001519  70.1628 289.9528 15.08835366 38167","EPOCH":"2023-03-13T21:45:42.171840","CLASSIFICATION_TYPE":"U","MEAN_MOTION_DDOT":"0.0000000000000","ELEMENT_SET_NO":"999","MEAN_MOTION_DOT":"-0.00000812","EPHEMERIS_TYPE":"0","NORAD_CAT_ID":"53019","GP_ID":"228033896","BSTAR":"-0.00003291300000","PERIAPSIS":"538.709","MEAN_MOTION":"15.08835366","TLE_LINE1":"1 53019U 22076AK  23072.90673810 -.00000812  00000-0 -32913-4 0  9998"},{"LAUNCH_DATE":"2022-07-07","OBJECT_NAME":"STARLINK-4287","COUNTRY_CODE":"US","RCS_SIZE":"LARGE","PERIOD":"95.437","OBJECT_TYPE":"PAYLOAD","OBJECT_ID":"2022-076AL","DECAY_DATE":null,"TIME_SYSTEM":"UTC","ECCENTRICITY":"0.00017740","REV_AT_EPOCH":"3803","APOAPSIS":"540.932","SEMIMAJOR_AXIS":"6917.840","MEAN_ANOMALY":"286.1937","REF_FRAME":"TEME","SITE":"AFETR","ARG_OF_PERICENTER":"73.9250","RA_OF_ASC_NODE":"309.1266","MEAN_ELEMENT_THEORY":"SGP4","CENTER_NAME":"EARTH","FILE":"3859425","INCLINATION":"53.2156","ELEMENT_SET_NO":"999","MEAN_MOTION_DOT":"0.00008004","EPHEMERIS_TYPE":"0","TLE_LINE2":"2 53020  53.2156 309.1266 0001774  73.9250 286.1937 15.08853344 38037","MEAN_MOTION_DDOT":"0.0000000000000","CLASSIFICATION_TYPE":"U","EPOCH":"2023-03-13T01:26:52.587168","PERIAPSIS":"538.477","MEAN_MOTION":"15.08853344","TLE_LINE1":"1 53020U 22076AL  23072.06033087  .00008004  00000-0  52022-3 0  9994","GP_ID":"228004760","BSTAR":"0.00052022000000","NORAD_CAT_ID":"53020"}];
